SENTINEL-6              
1 46984U 20086A   24114.96887696 -.00000036  00000+0  11048-3 0  9994
2 46984  66.0423 323.8832 0007737 270.7609  89.2520 12.80930268160000
